56125,STARLINK-6119,2023,95.84,290.0,+,43.0,Active,1,LEO,USA,USA,Commercial,Communications,Falcon,1 56125U 23046AK  24235.32671981  .00000651  00000+0  63229-4 0  9994,2 56125  43.0016 332.8620 0000913 218.2098 141.8679 15.02536788 77850,15.02536788,9.13e-05,LEO
56126,STARLINK-6124,2023,95.84,290.0,+,43.0,Active,1,LEO,USA,USA,Commercial,Communications,Falcon,1 56126U 23046AL  24235.32005465 -.00003010  00000+0 -20783-3 0  9994,2 56126  43.0007 332.8144 0000939 254.7421 105.3317 15.02544929 77855,15.02544929,9.39e-05,LEO
56127,STARLINK-6104,2023,95.83,290.0,+,43.01,Active,1,LEO,USA,USA,Commercial,Communications,Falcon,1 56127U 23046AM  24235.57818479 -.00013069  00000+0 -95235-3 0  9998,2 56127  43.0015 331.3130 0001406 259.2939 100.7745 15.02607034 77893,15.02607034,0.0001406,LEO
56128,STARLINK-6122,2023,95.84,290.0,+,43.0,Active,1,LEO,USA,USA,Commercial,Communications,Falcon,1 56128U 23046AN  24235.66136170  .00026865  00000+0  20018-2 0  9992,2 56128  43.0022 331.0752 0000507 209.2459 150.8355 15.02429912 77904,15.02429912,5.07e-05,LEO
56129,STARLINK-6121,2023,95.84,290.0,+,43.0,Active,1,LEO,USA,USA,Commercial,Communications,Falcon,1 56129U 23046AP  24235.18371320  .00000300  00000+0  37264-4 0  9997,2 56129  43.0011 281.6154 0001060 274.5624  85.5097 15.02537909 77894,15.02537909,0.000106,LEO
56130,STARLINK-6117,2023,95.84,290.0,+,43.0,Active,1,LEO,USA,USA,Commercial,Communications,Falcon,1 56130U 23046AQ  24235.71557959 -.00006707  00000+0 -48137-3 0  9991,2 56130  42.9994 330.6246 0000597 242.5689 117.5093 15.02576595 77910,15.02576595,5.97e-05,LEO
56132,STARLINK-6071,2023,95.84,290.0,+,43.01,Active,1,LEO,USA,USA,Commercial,Communications,Falcon,1 56132U 23046AS  24235.71227430 -.00000006  00000+0  14606-4 0  9991,2 56132  43.0034 330.5978 0001000 268.9530  91.1198 15.02534022 77919,15.02534022,0.0001,LEO
56134,STARLINK-5564,2023,95.84,290.0,+,43.0,Active,1,LEO,USA,USA,Commercial,Communications,Falcon,1 56134U 23046AU  24235.57598033  .00009193  00000+0  69448-3 0  9995,2 56134  43.0036 331.2975 0001915 267.7503  92.3120 15.02548120 77350,15.0254812,0.0001915,LEO
56136,STARLINK-5489,2023,95.84,290.0,+,43.0,Active,1,LEO,USA,USA,Commercial,Communications,Falcon,1 56136U 23046AW  24235.57154310  .00002686  00000+0  21379-3 0  9994,2 56136  43.0039 331.2611 0001253 272.1532  87.9167 15.02540632 77350,15.02540632,0.0001253,LEO
56137,STARLINK-5090,2023,95.84,290.0,+,43.0,Active,1,LEO,USA,USA,Commercial,Communications,Falcon,1 56137U 23046AX  24235.61581622  .00004296  00000+0  33276-3 0  9998,2 56137  43.0038 330.7297 0001438 276.0451  84.0228 15.02554176 77907,15.02554176,0.0001438,LEO
56141,STARLINK-5377,2023,95.84,290.0,+,43.01,Active,1,LEO,USA,USA,Commercial,Communications,Falcon,1 56141U 23046BB  24235.61469770 -.00001212  00000+0 -74582-4 0  9995,2 56141  43.0037 330.7220 0001322 272.4525  87.6166 15.02563182 77908,15.02563182,0.0001322,LEO
56142,STARLINK-5376,2023,95.84,290.0,+,43.0,Active,1,LEO,USA,USA,Commercial,Communications,Falcon,1 56142U 23046BC  24235.69228344  .00001756  00000+0  14503-3 0  9991,2 56142  43.0032 330.4430 0001137 268.7735  91.2977 15.02542918 77915,15.02542918,0.0001137,LEO
56143,STARLINK-5016,2023,95.84,290.0,+,43.01,Active,1,LEO,USA,USA,Commercial,Communications,Falcon,1 56143U 23046BD  24235.67564330 -.00000205  00000+0 -59385-7 0  9999,2 56143  43.0050 330.3202 0001693 283.0259  77.0394 15.02536160 77917,15.0253616,0.0001693,LEO
56144,STARLINK-5374,2023,95.84,290.0,+,43.01,Active,1,LEO,USA,USA,Commercial,Communications,Falcon,1 56144U 23046BE  24235.62248552  .00001712  00000+0  14179-3 0  9990,2 56144  43.0060 330.7818 0001288 259.3008 100.7690 15.02533959 77909,15.02533959,0.0001288,LEO
56146,STARLINK-5111,2023,95.84,290.0,+,43.0,Active,1,LEO,USA,USA,Commercial,Communications,Falcon,1 56146U 23046BG  24235.54490940 -.00000624  00000+0 -31073-4 0  9999,2 56146  43.0056 331.0605 0001895 277.1264  82.9363 15.02536475 77353,15.02536475,0.0001895,LEO
56147,STARLINK-5140,2023,95.84,290.0,+,43.0,Active,1,LEO,USA,USA,Commercial,Communications,Falcon,1 56147U 23046BH  24235.65320945  .00001743  00000+0  14402-3 0  9996,2 56147  43.0021 291.9345 0001060 278.6357  81.4365 15.02544861 78359,15.02544861,0.000106,LEO
56148,STARLINK-5089,2023,95.84,290.0,+,43.0,Active,1,LEO,USA,USA,Commercial,Communications,Falcon,1 56148U 23046BJ  24235.45710998  .00002114  00000+0  17147-3 0  9998,2 56148  43.0007 293.0466 0001080 264.9726  95.0993 15.02539608 77788,15.02539608,0.000108,LEO
56153,PIESAT A,2023,95.09,320.0,+,97.5,Active,1,LEO,PRC,China,Commercial,Earth Observation,Long March,1 56153U 23047A   24235.58640394  .00009602  00000+0  52769-3 0  9999,2 56153  97.5040  61.1995 0001628 100.5603 259.5812 15.14302920 77373,15.1430292,0.0001628,LEO
56154,PIESAT B,2023,95.09,270.0,+,97.5,Active,1,LEO,PRC,China,Commercial,Earth Observation,Long March,1 56154U 23047B   24235.58640680  .00010277  00000+0  56456-3 0  9995,2 56154  97.5009  61.1971 0001560 110.2168 249.9232 15.14300991 77377,15.14300991,0.000156,LEO
56155,PIESAT C,2023,95.09,270.0,+,97.5,Active,1,LEO,PRC,China,Commercial,Earth Observation,Long March,1 56155U 23047C   24235.58640714  .00004947  00000+0  27377-3 0  9991,2 56155  97.5020  61.1978 0001739  89.3403 270.8028 15.14299240 77374,15.1429924,0.0001739,LEO
56156,PIESAT D,2023,95.09,270.0,+,97.5,Active,1,LEO,PRC,China,Commercial,Earth Observation,Long March,1 56156U 23047D   24234.46306148  .00006874  00000+0  37884-3 0  9993,2 56156  97.5010  60.0922 0002126  63.2478 296.8971 15.14308534 77209,15.14308534,0.0002126,LEO
56157,OBJECT A,2023,107.04,500.0,+,63.4,Active,1,LEO,PRC,China,Military,Earth Observation,Long March,1 56157U 23048A   24235.78231342 -.00000036  00000+0  91121-4 0  9994,2 56157  63.4049   2.2093 0050520 351.6650   8.3532 13.45345739 68689,13.45345739,0.005052,LEO
56162,CHECKMATE 8,2023,103.99,150.0,+,81.01,Active,1,LEO,USA,USA,Military,Technology Development,Falcon,1 56162U 23050A   24235.56006330  .00000240  00000+0  20347-3 0  9993,2 56162  81.0058 348.1334 0005408 311.9385  48.1310 13.84741700 70297,13.847417,0.0005408,LEO
56163,CHECKMATE 5,2023,103.99,150.0,+,81.0,Active,1,LEO,USA,USA,Military,Technology Development,Falcon,1 56163U 23050B   24235.75845084  .00000246  00000+0  20915-3 0  9999,2 56163  81.0047 347.8419 0005609 309.7620  50.3041 13.84782037 70335,13.84782037,0.0005609,LEO
56164,CHECKMATE 4,2023,104.0,150.0,+,81.0,Active,1,LEO,USA,USA,Military,Technology Development,Falcon,1 56164U 23050C   24235.71292991  .00000271  00000+0  23183-3 0  9997,2 56164  81.0051 347.9662 0004603 324.7209  35.3642 13.84653921 70312,13.84653921,0.0004603,LEO
56166,CHECKMATE 7,2023,103.98,150.0,+,81.0,Active,1,LEO,USA,USA,Military,Technology Development,Falcon,1 56166U 23050E   24235.28274377  .00000288  00000+0  24527-3 0  9990,2 56166  81.0038 348.1819 0005546 304.3134  55.7497 13.84872744 70202,13.84872744,0.0005546,LEO
