OBJECT_NAME,OBJECT_ID,EPOCH,MEAN_MOTION,ECCENTRICITY,INCLINATION,RA_OF_ASC_NODE,ARG_OF_PERICENTER,MEAN_ANOMALY,EPHEMERIS_TYPE,CLASSIFICATION_TYPE,NORAD_CAT_ID,ELEMENT_SET_NO,REV_AT_EPOCH,BSTAR,MEAN_MOTION_DOT,MEAN_MOTION_DDOT
STARLINK-6119,2023-046AK,2024-08-22T07:50:28.591584,15.02536788,.0000913,43.0016,332.8620,218.2098,141.8679,0,U,56125,999,7785,.63229E-4,.651E-5,0
STARLINK-6124,2023-046AL,2024-08-22T07:40:52.721760,15.02544929,.0000939,43.0007,332.8144,254.7421,105.3317,0,U,56126,999,7785,-.20783E-3,-.301E-4,0
STARLINK-6104,2023-046AM,2024-08-22T13:52:35.165856,15.02607034,.0001406,43.0015,331.3130,259.2939,100.7745,0,U,56127,999,7789,-.95235E-3,-.13069E-3,0
STARLINK-6122,2023-046AN,2024-08-22T15:52:21.650880,15.02429912,.0000507,43.0022,331.0752,209.2459,150.8355,0,U,56128,999,7790,.20018E-2,.26865E-3,0
STARLINK-6121,2023-046AP,2024-08-22T04:24:32.820480,15.02537909,.000106,43.0011,281.6154,274.5624,85.5097,0,U,56129,999,7789,.37264E-4,.3E-5,0
STARLINK-6117,2023-046AQ,2024-08-22T17:10:26.076576,15.02576595,.0000597,42.9994,330.6246,242.5689,117.5093,0,U,56130,999,7791,-.48137E-3,-.6707E-4,0
STARLINK-6071,2023-046AS,2024-08-22T17:05:40.499520,15.02534022,.0001,43.0034,330.5978,268.9530,91.1198,0,U,56132,999,7791,.14606E-4,-.6E-7,0
STARLINK-5564,2023-046AU,2024-08-22T13:49:24.700512,15.02548120,.0001915,43.0036,331.2975,267.7503,92.3120,0,U,56134,999,7789,.69448E-3,.9193E-4,0
STARLINK-5489,2023-046AW,2024-08-22T13:43:01.323840,15.02540632,.0001253,43.0039,331.2611,272.1532,87.9167,0,U,56136,999,7735,.21379E-3,.2686E-4,0
STARLINK-5090,2023-046AX,2024-08-22T14:46:46.521408,15.02554176,.0001438,43.0038,330.7297,276.0451,84.0228,0,U,56137,999,7790,.33276E-3,.4296E-4,0
STARLINK-5377,2023-046BB,2024-08-22T14:45:09.881280,15.02563182,.0001322,43.0037,330.7220,272.4525,87.6166,0,U,56141,999,7790,-.74582E-4,-.1212E-4,0
STARLINK-5376,2023-046BC,2024-08-22T16:36:53.289216,15.02542918,.0001137,43.0032,330.4430,268.7735,91.2977,0,U,56142,999,7791,.14503E-3,.1756E-4,0
STARLINK-5016,2023-046BD,2024-08-22T16:12:55.581120,15.02536160,.0001693,43.0050,330.3202,283.0259,77.0394,0,U,56143,999,7791,-.59385E-7,-.205E-5,0
STARLINK-5374,2023-046BE,2024-08-22T14:56:22.748928,15.02533959,.0001288,43.0060,330.7818,259.3008,100.7690,0,U,56144,999,7790,.14179E-3,.1712E-4,0
STARLINK-5111,2023-046BG,2024-08-22T13:04:40.172160,15.02536475,.0001895,43.0056,331.0605,277.1264,82.9363,0,U,56146,999,7735,-.31073E-4,-.624E-5,0
STARLINK-5140,2023-046BH,2024-08-22T15:40:37.296480,15.02544861,.000106,43.0021,291.9345,278.6357,81.4365,0,U,56147,999,7835,.14402E-3,.1743E-4,0
STARLINK-5089,2023-046BJ,2024-08-22T10:58:14.302272,15.02539608,.000108,43.0007,293.0466,264.9726,95.0993,0,U,56148,999,7778,.17147E-3,.2114E-4,0
PIESAT A,2023-047A,2024-08-22T14:04:25.300416,15.14302920,.0001628,97.5040,61.1995,100.5603,259.5812,0,U,56153,999,7737,.52769E-3,.9602E-4,0
PIESAT B,2023-047B,2024-08-22T14:04:25.547520,15.14300991,.000156,97.5009,61.1971,110.2168,249.9232,0,U,56154,999,7737,.56456E-3,.10277E-3,0
PIESAT C,2023-047C,2024-08-22T14:04:25.576896,15.14299240,.0001739,97.5020,61.1978,89.3403,270.8028,0,U,56155,999,7737,.27377E-3,.4947E-4,0
PIESAT D,2023-047D,2024-08-21T11:06:48.511872,15.14308534,.0002126,97.5010,60.0922,63.2478,296.8971,0,U,56156,999,7720,.37884E-3,.6874E-4,0
2023-048A,2023-048A,2024-08-22T18:46:31.879488,13.45345739,.005052,63.4049,2.2093,351.6650,8.3532,0,U,56157,999,6868,.91121E-4,-.36E-6,0
CHECKMATE 8,2023-050A,2024-08-22T13:26:29.469120,13.84741700,.0005408,81.0058,348.1334,311.9385,48.1310,0,U,56162,999,7029,.20347E-3,.24E-5,0
CHECKMATE 5,2023-050B,2024-08-22T18:12:10.152576,13.84782037,.0005609,81.0047,347.8419,309.7620,50.3041,0,U,56163,999,7033,.20915E-3,.246E-5,0
CHECKMATE 4,2023-050C,2024-08-22T17:06:37.144224,13.84653921,.0004603,81.0051,347.9662,324.7209,35.3642,0,U,56164,999,7031,.23183E-3,.271E-5,0
CHECKMATE 7,2023-050E,2024-08-22T06:47:09.061728,13.84872744,.0005546,81.0038,348.1819,304.3134,55.7497,0,U,56166,999,7020,.24527E-3,.288E-5,0
